159P/LONEOS,e,23.4860,54.9417,4.5982,5.852803,0.0696079,0.38266623,129.3394,06/25.0/2023,2000,g 10.0,4.0
# From MPEC 2022-K19
160P/LINEAR,e,15.6079,333.3592,12.7923,3.777255,0.1342578,0.52592709,174.5852,06/25.0/2023,2000,g 15.5,2.0
# From MPC 75721
161P/Hartley-IRAS,e,95.7982,1.5715,47.0488,7.715355,0.0459907,0.83560621,302.4173,06/25.0/2023,2000,g  8.5,6.0
# From MPEC 2023-M14
162P/SidingSpring,e,27.5654,30.8881,357.1964,3.092183,0.1812618,0.58316832,168.3548,06/25.0/2023,2000,g 13.7,4.0
# From MPEC 2021-S45
163P/NEAT,e,12.7181,102.0657,349.5583,3.764227,0.1349554,0.45279403,191.5358,06/25.0/2023,2000,g 14.5,4.0
# From MPEC 2021-F20
164P/Christensen,e,16.2724,88.2650,325.8881,3.653867,0.1411156,0.54107697,260.8809,06/25.0/2023,2000,g 11.0,4.0
# From MPC 75721
165P/LINEAR,e,15.8958,0.8470,125.7698,17.83176,0.0130892,0.61704232,110.3938,06/25.0/2023,2000,g 11.5,2.0
# From MPC 75722
166P/NEAT,e,15.3872,64.3356,321.7189,13.81814,0.0191880,0.38458659,147.5288,06/25.0/2023,2000,g  5.5,4.0
# From MPEC 2023-J29
167P/CINEOS,e,19.0982,295.7558,344.7847,16.25363,0.0150411,0.26928093,121.7148,06/25.0/2023,2000,g  9.5,2.0
# From MPEC 2023-J29
168P/Hergenrother,e,21.6125,355.4305,15.0507,3.587025,0.1450783,0.62166495,205.3923,06/25.0/2023,2000,g 15.5,4.0
# From MPEC 2023-J95
169P/NEAT,e,11.2977,176.1006,218.0601,2.602855,0.2347086,0.76834448,82.2191,06/25.0/2023,2000,g 16.0,2.0
# From MPEC 2023-A50
170P/Christensen,e,10.1138,142.8791,225.3471,4.212244,0.1140076,0.30589148,7.6084,06/25.0/2023,2000,g 12.0,4.0
# From MPC102102
171P/Spahr,e,21.9491,101.6888,347.0487,3.553481,0.1471374,0.50229894,238.8687,06/25.0/2023,2000,g 13.5,4.0
# From MPEC 2023-J95
172P/Yeung,e,11.2253,30.8749,209.1864,4.218116,0.1137696,0.20449801,261.8036,06/25.0/2023,2000,g 13.0,4.0
# From MPEC 2023-KD6
173P/Mueller,e,16.4892,100.3740,29.1553,5.710552,0.0722249,0.26165331,40.1258,06/25.0/2023,2000,g  7.5,4.0
# From MPC 92985
174P/Echeclus,e,4.3438,173.1909,163.4507,10.74782,0.0279720,0.45668456,83.4043,06/25.0/2023,2000,g  9.4,2.0
# From MPC114608
175P/Hergenrother,e,4.9104,110.8513,74.9100,3.653367,0.1411446,0.38601484,196.0834,06/25.0/2023,2000,g 14.0,4.0
# From MPC 89015
176P/LINEAR,e,0.2313,345.7580,34.3755,3.195520,0.1725408,0.19254191,37.3646,06/25.0/2023,2000,g 15.1,2.0
# From MPEC 2020-L06
177P/Barnard,e,31.0766,271.8387,60.6940,24.50085,0.0081270,0.95504674,49.8667,06/25.0/2023,2000,g 15.0,4.0
# From MPEC 2021-F20
178P/Hug-Bell,e,11.0879,102.8222,297.8719,3.632737,0.1423486,0.48251778,152.6996,06/25.0/2023,2000,g 14.6,4.0
# From MPEC 2023-HD1
179P/Jedicke,e,19.8969,115.5150,297.0178,5.932918,0.0682027,0.30583223,26.5972,06/25.0/2023,2000,g 12.5,4.0
# From MPEC 2023-M14
180P/NEAT,e,16.8600,84.5657,94.6652,3.867759,0.1295731,0.35341598,357.7736,06/25.0/2023,2000,g 11.0,4.0
# From MPC 89012
181P/Shoemaker-Levy,e,17.4864,35.3942,336.2842,3.876107,0.1291548,0.70053444,68.7417,06/25.0/2023,2000,g 11.5,4.0
# From MPEC 2014-J10
182P/LONEOS,e,16.2298,72.4582,54.2137,2.950048,0.1945183,0.66330565,79.5075,06/25.0/2023,2000,g 18.0,4.0
# From MPEC 2023-A50
183P/Korlevic-Juric,e,18.9242,3.9784,166.6691,4.666675,0.0977671,0.10680171,205.9806,06/25.0/2023,2000,g 12.5,2.0
# From MPEC 2020-W26
184P/Lovas,e,4.5737,173.2412,186.5657,3.797946,0.1331622,0.55082358,129.3883,06/25.0/2023,2000,g 13.5,4.0
# From MPEC 2023-MA9
185P/Petriew,e,14.0146,214.1144,181.8882,3.098351,0.1807208,0.69974304,356.7653,06/25.0/2023,2000,g 15.0,4.0
# From MPEC 2022-X67
186P/Garradd,e,28.6439,326.2737,269.4022,4.853330,0.0921816,0.12418852,150.8535,06/25.0/2023,2000,g  7.5,4.0
# From MPEC 2020-SI8
187P/LINEAR,e,13.6397,109.8743,131.2540,4.563519,0.1011007,0.15279701,189.2454,06/25.0/2023,2000,g  9.0,4.0
# From MPEC 2023-J29
188P/LINEAR-Mueller,e,10.5250,358.9578,26.6682,4.369849,0.1078958,0.41688058,249.6475,06/25.0/2023,2000,g 11.5,4.0
# From MPEC 2022-QD9
189P/NEAT,e,20.0745,281.6862,16.3234,2.945057,0.1950130,0.58884762,58.5345,06/25.0/2023,2000,g 19.0,4.0
# From MPEC 2020-K19
190P/Mueller,e,2.1741,335.5223,50.4394,4.229480,0.1133114,0.52225424,297.9023,06/25.0/2023,2000,g 13.0,4.0
# From MPEC 2022-X67
191P/McNaught,e,8.8393,98.2119,284.1665,3.638255,0.1420248,0.38593338,117.3835,06/25.0/2023,2000,g 13.0,4.0
# From MPC 75724
192P/Shoemaker-Levy,e,24.5884,51.6116,313.0688,6.464779,0.0599617,0.77340849,339.9515,06/25.0/2023,2000,g 15.0,4.0
# From MPEC 2022-Y15
193P/LINEAR-NEAT,e,10.6872,335.1803,8.1145,3.577108,0.1456820,0.39352697,97.4438,06/25.0/2023,2000,g 14.0,4.0
# From MPEC 2023-J29
194P/LINEAR,e,11.8108,349.5438,128.5088,4.124322,0.1176725,0.56364461,333.6510,06/25.0/2023,2000,g 16.0,4.0
# From MPEC 2023-D72
195P/Hill,e,36.3643,243.1068,249.4124,6.505546,0.0593989,0.31497090,314.6799,06/25.0/2023,2000,g  8.5,4.0
# From MPEC 2022-YN2
196P/Tichy,e,19.3017,24.1122,12.0415,3.803228,0.1328848,0.42801300,31.7197,06/25.0/2023,2000,g 13.5,4.0
# From MPC 94676
197P/LINEAR,e,25.5298,66.3530,188.7795,2.868901,0.2028293,0.62941932,40.4146,06/25.0/2023,2000,g 16.5,2.0
# From NK 1596
198P/ODAS,e,1.3385,358.2042,69.2399,3.595741,0.1445511,0.44448850,238.9027,06/25.0/2023,2000,g  9.0,4.0
# From MPEC 2023-MA9
199P/Shoemaker,e,24.9373,92.3471,191.7751,5.882106,0.0690883,0.50521836,356.9890,06/25.0/2023,2000,g 10.0,4.0
# From MPEC 2022-C56
200P/Larsen,e,12.0984,234.7317,134.3637,4.947530,0.0895615,0.33246299,127.6938,06/25.0/2023,2000,g  9.0,4.0
# From MPC 93588
201P/LONEOS,e,5.7393,19.7438,41.5472,3.354746,0.1604038,0.63743989,121.7556,06/25.0/2023,2000,g 14.0,4.0
# From MPEC 2022-X67
202P/Scotti,e,2.1419,177.3450,274.4754,4.118055,0.1179413,0.25500460,321.4185,06/25.0/2023,2000,g 13.5,4.0
# From MPEC 2021-S45
203P/Korlevic,e,2.9733,290.2725,154.7956,4.669146,0.0976895,0.31590307,117.8924,06/25.0/2023,2000,g 14.5,2.0
# From MPEC 2023-KD6
204P/LINEAR-NEAT,e,6.5960,108.4965,356.6638,3.582387,0.1453602,0.48793750,31.9964,06/25.0/2023,2000,g 14.0,4.0
# From MPEC 2023-A50
205P/Giacobini,e,15.3061,179.6041,154.1780,3.542059,0.1478497,0.56787604,77.9765,06/25.0/2023,2000,g 13.0,4.0
# From MPC 75725
206P/Barnard-Boattini,e,33.6409,202.3307,189.5471,3.490384,0.1511452,0.55152437,127.3007,06/25.0/2023,2000,g 19.0,4.0
# From MPC 75725
207P/NEAT,e,10.2016,198.1600,273.0055,3.881561,0.1288826,0.75838230,331.5416,06/25.0/2023,2000,g 16.0,4.0
# From MPEC 2022-K19
208P/McMillan,e,4.4125,36.3397,310.6231,4.040829,0.1213384,0.37409193,308.3433,06/25.0/2023,2000,g 12.5,4.0
# From MPEC 2023-CD7
209P/LINEAR,e,21.2774,62.7658,152.4592,2.959345,0.1936024,0.67375814,285.3541,06/25.0/2023,2000,g 17.0,2.0
# From MPC105242
210P/Christensen,e,10.2782,93.8001,345.9077,3.162779,0.1752269,0.83378125,205.4954,06/25.0/2023,2000,g 13.5,4.0
# From MPEC 2023-KD6
211P/Hill,e,18.9184,117.1267,4.2981,3.548243,0.1474634,0.34402881,38.8330,06/25.0/2023,2000,g 12.5,4.0
# From MPEC 2021-F20
212P/NEAT,e,22.1437,98.0161,14.0265,3.901836,0.1278794,0.58696570,320.9827,06/25.0/2023,2000,g 17.0,2.0
# From MPEC 2022-GA9
213P/VanNess,e,10.3810,311.2753,5.7735,3.345486,0.1610702,0.40804658,337.4914,06/25.0/2023,2000,g 10.5,4.0
# From MPC 92986
214P/LINEAR,e,15.1829,348.2450,190.1649,3.619238,0.1431457,0.48586403,38.9105,06/25.0/2023,2000,g 13.0,4.0
# From MPEC 2023-B57
215P/NEAT,e,10.5769,56.6767,262.4191,4.331859,0.1093182,0.16592103,143.6353,06/25.0/2023,2000,g 11.0,4.0
# From MPC100284
216P/LINEAR,e,9.0634,359.7987,151.7206,3.857201,0.1301055,0.44852350,334.5196,06/25.0/2023,2000,g 13.0,4.0
# From MPEC 2023-J29
217P/LINEAR,e,12.8621,125.4110,246.9641,3.947945,0.1256456,0.68930481,272.0743,06/25.0/2023,2000,g 12.0,4.0
# From MPEC 2022-K19
218P/LINEAR,e,2.7306,176.0123,59.5240,3.086484,0.1817641,0.62398039,180.6355,06/25.0/2023,2000,g 16.0,4.0
# From MPEC 2023-MA9
219P/LINEAR,e,11.5398,230.9528,107.5977,3.645807,0.1415838,0.35404764,326.9069,06/25.0/2023,2000,g 11.0,4.0
# From MPEC 2021-BE3
220P/McNaught,e,8.1267,150.1065,180.6110,3.118104,0.1790063,0.50117090,165.8591,06/25.0/2023,2000,g 15.0,4.0
# From MPEC 2022-UY9
221P/LINEAR,e,11.4814,229.5782,40.0187,3.454388,0.1535138,0.49503726,84.9416,06/25.0/2023,2000,g 14.5,4.0
# From MPC 92277
222P/LINEAR,e,5.0975,6.7738,346.2853,2.898363,0.1997445,0.71475488,295.5081,06/25.0/2023,2000,g 20.0,4.0
# From MPEC 2023-A50
223P/Skiff,e,27.0198,346.7610,37.8821,4.158519,0.1162241,0.41656494,186.8613,06/25.0/2023,2000,g 12.0,4.0
# From MPEC 2023-BF4
224P/LINEAR-NEAT,e,13.3058,40.0378,16.6954,3.443912,0.1542148,0.40584664,41.3269,06/25.0/2023,2000,g 15.5,4.0
# From MPC 75727
225P/LINEAR,e,21.3668,14.2043,3.9149,3.648591,0.1414218,0.63854354,353.7690,06/25.0/2023,2000,g 18.0,4.0
# From MPC106349
226P/Pigott-LINEAR-Kowalski,e,44.0446,54.0131,341.0800,3.766106,0.1348545,0.52902561,335.0171,06/25.0/2023,2000,g 12.5,4.0
# From MPC102956
227P/Catalina-LINEAR,e,7.5092,36.8114,105.5129,3.439166,0.1545341,0.52779556,320.2639,06/25.0/2023,2000,g 16.5,2.0
# From MPEC 2022-HC2
228P/LINEAR,e,7.9132,30.9851,114.8051,4.166037,0.1159096,0.17643585,139.5726,06/25.0/2023,2000,g 14.1,4.0
# From MPC106349
229P/Gibbs,e,26.0921,157.8964,224.1015,3.925566,0.1267216,0.37799434,281.4966,06/25.0/2023,2000,g 13.0,4.0
# From MPEC 2023-KD6
230P/LINEAR,e,15.4680,106.9701,313.4770,3.453195,0.1535933,0.54563091,71.0500,06/25.0/2023,2000,g 13.0,4.0
# From MPEC 2022-K19
231P/LINEAR-NEAT,e,12.2853,132.9346,44.1912,4.050113,0.1209215,0.24190980,178.2038,06/25.0/2023,2000,g 14.5,2.0
# From MPC112394
232P/Hill,e,14.6437,56.0272,53.2184,4.474220,0.1041425,0.33504450,160.4747,06/25.0/2023,2000,g 11.5,4.0
# From MPEC 2021-N06
233P/La Sagra,e,11.2897,74.9185,26.9563,3.028103,0.1870459,0.41238303,186.3309,06/25.0/2023,2000,g 15.0,4.0
# From MPEC 2022-K19
234P/LINEAR,e,11.5355,179.5697,357.3729,3.795736,0.1332785,0.25661328,295.1633,06/25.0/2023,2000,g 12.0,4.0
# From MPC110497
235P/LINEAR,e,10.8717,202.4539,342.1865,3.623931,0.1428678,0.41963405,234.8509,06/25.0/2023,2000,g 12.0,4.0
# From MPEC 2023-J29
236P/LINEAR,e,16.3526,245.5703,119.3600,3.727458,0.1369572,0.50940335,279.2428,06/25.0/2023,2000,g 14.0,4.0
# From MPEC 2023-MA9
